IDEFIX & ARIANE 42P R/B 
1 27422U 02021B   23301.56647295  .00000493  00000+0  20813-3 0  9997
2 27422  98.5024 239.2562 0011417 204.5150 155.5491 14.29833916120624
AQUA                    
1 27424U 02022A   23301.60707472  .00001637  00000+0  36255-3 0  9997
2 27424  98.3007 245.6635 0001967  91.6679  22.1868 14.58487413142762
CZ-4B R/B               
1 27432U 02024C   23301.55882520  .00000106  00000+0  78639-4 0  9993
2 27432  99.0099 337.3750 0049514 310.1131 169.6462 14.14250053107228
MIDORI II (ADEOS-II)    
1 27597U 02056A   23301.44702923  .00000526  00000+0  22941-3 0  9996
2 27597  98.6622 244.5107 0001594  46.2522 313.8791 14.28058003 87039
H-2A R/B                
1 27601U 02056E   23301.59709196  .00000464  00000+0  18113-3 0  9994
2 27601  98.2060 285.6122 0070766 214.4537 257.0101 14.32516830 90481
CZ-4B R/B               
1 28059U 03049C   23301.58950980  .00000874  00000+0  21860-3 0  9991
2 28059  98.5771 252.9369 0049270 347.5875  12.4103 14.53375793 61151
CZ-2C R/B               
1 28222U 04012C   23301.56623684  .00010961  00000+0  50010-3 0  9997
2 28222  97.8082 300.3954 0039830 136.7202 223.7173 15.20085107 71697
SL-16 R/B               
1 28353U 04021B   23301.55557787 -.00000214  00000+0 -87009-4 0  9992
2 28353  71.0003 243.5013 0007682 270.4974  89.5268 14.14358524   788
CZ-4B R/B               
1 28415U 04035C   23301.55314593  .00006274  00000+0  35508-3 0  9998
2 28415  97.4554 335.5680 0047434 107.9503 252.6907 15.12420139 48767
CZ-2C R/B               
1 28480U 04046B   23301.45807363  .00000263  00000+0  11425-3 0  9997
2 28480  98.1305 256.7197 0140856 187.2263 172.6891 14.26143423985411
ARIANE 5 R/B            
1 28499U 04049H   23301.61968856  .00001732  00000+0  21318-3 0  9997
2 28499  98.1544  69.8414 0088283 264.8810 104.5663 14.81676464 17825
CZ-2D R/B               
1 28738U 05024B   23301.56745797  .00010025  00000+0  46089-3 0  9995
2 28738  97.3592 299.6457 0007969 236.2740 123.7737 15.20525433  7256
SUZAKU (ASTRO-EII)      
1 28773U 05025A   23301.27787158  .00019691  00000+0  59393-3 0  9990
2 28773  31.3904 263.8095 0001836  15.4629 344.6078 15.33099355 11082
ALOS (DAICHI)           
1 28931U 06002A   23301.48825916  .00001960  00000+0  37720-3 0  9990
2 28931  98.0056 255.1732 0001811 113.2348 246.9046 14.64661996946902
H-2A R/B                
1 28932U 06002B   23301.47539655  .00006216  00000+0  50258-3 0  9992
2 28932  98.2287  15.4725 0079226 252.1402 107.1166 14.97729921964460
RESURS-DK 1             
1 29228U 06021A   23301.41961680  .00002861  00000+0  20475-3 0  9993
2 29228  69.9342 297.9530 0005082 336.0088  24.0837 15.05622569957260
GENESIS 1               
1 29252U 06029A   23301.50144706  .00016258  00000+0  56209-3 0  9999
2 29252  64.5190 226.0120 0008047 213.8658 146.1958 15.30040915954899
CZ-4B R/B               
1 29507U 06046C   23301.59246590  .00004894  00000+0  34106-3 0  9999
2 29507  97.6737 334.0579 0042164 350.5165   9.5260 15.05169373929706
CZ-2C R/B               
1 31114U 07010B   23301.54175437  .00000217  00000+0  11982-3 0  9996
2 31114  98.2999  86.6834 0058380 286.2547  73.2214 14.19643146857234
COSMO-SKYMED 1          
1 31598U 07023A   23301.56228418  .00001000  00000+0  13211-3 0  9994
2 31598  97.8873 123.1181 0001423  87.3072 272.8304 14.82159482886668
GENESIS 2               
1 31789U 07028A   23301.25337134  .00014196  00000+0  49616-3 0  9991
2 31789  64.4919 271.4933 0048681 243.9699 115.6413 15.28662157901724
COSMOS 2428             
1 31792U 07029A   23301.52275706  .00000362  00000+0  22137-3 0  9991
2 31792  70.9336 214.9136 0008307   3.5623 356.5555 14.12591168842180
SL-16 R/B               
1 31793U 07029B   23301.44899841  .00000377  00000+0  22115-3 0  9997
2 31793  70.9756 186.6117 0002394 261.6131 175.7452 14.14564451843288
KORONAS-FOTON           
1 33504U 09003A   23301.39561085  .00008079  00000+0  34938-3 0  9996
2 33504  82.4379  77.5949 0016404 342.2065  17.8594 15.22181394813561
CZ-2C R/B               
1 37731U 11030B   23301.50678758  .00002096  00000+0  30002-3 0  9995
2 37731  97.7325 269.5240 0055763 275.1134 204.7259 14.76581873662501
H-2A R/B                
1 38341U 12025E   23301.55916182  .00003031  00000+0  33883-3 0  9999
2 38341  98.4359 193.6196 0051107 240.7270 118.8830 14.86857570619602
CUSAT 2 & FALCON 9 R/B  
1 39271U 13055G   23301.57303772  .00048121 -24616-6  75954-3 0  9994
2 39271  80.9469 354.3471 0397020 352.0474   7.4557 14.96718737530316
SHIJIAN-16 (SJ-16)      
1 39358U 13057A   23301.58310794  .00002681  00000+0  29651-3 0  9992
2 39358  74.9766  13.4424 0018161  35.8359 324.4041 14.87677793542948
CZ-2C R/B               
1 39364U 13059B   23301.56689917  .00042214  00000+0  71139-3 0  9999
2 39364  97.0860 345.8715 0026427 330.4065  29.5691 15.51168866556805
SL-4 R/B                
1 39679U 14021B   23301.26892586  .00006320  00000+0  26852-3 0  9993
2 39679  51.6108 148.0186 0147547 256.5124 101.9372 15.15030574524407
ALOS-2                  
1 39766U 14029A   23301.52080623  .00003194  00000+0  43433-3 0  9998
2 39766  97.9236  36.5028 0001455  99.9249 260.2126 14.79479606509275
SL-27 R/B               
1 40354U 14084B   23301.58469874  .00027452  00000+0  36031-3 0  9998
2 40354  74.7330 350.0419 0027131 281.9861  77.8319 15.57949794497749
YAOGAN-29               
1 41038U 15069A   23301.57358828  .00000782  00000+0  10685-3 0  9991
2 41038  98.0638 309.6020 0000075 282.9380  77.1823 14.81417866428026
ASTRO-H (HITOMI)        
1 41337U 16012A   23301.59808497  .00003662  00000+0  26665-3 0  9991
2 41337  31.0017 132.4799 0011597 342.9469  17.0776 15.01941307422004
HXMT (HUIYAN)           
1 42758U 17034A   23301.53903577  .00006930  00000+0  38880-3 0  9996
2 42758  43.0135 122.9979 0002818 165.8562 194.2364 15.13826751351563
CZ-2C R/B               
1 43521U 18054D   23300.90397259  .00011535  00000+0  47273-3 0  9995
2 43521  35.1497 144.5804 0065231 190.1830 169.7567 15.21519305295246
SAOCOM 1A               
1 43641U 18076A   23301.50316250  .00000821  00000+0  10971-3 0  9992
2 43641  97.8875 126.0826 0001486  88.7425 271.3958 14.82148278273509
H-2A R/B                
1 43682U 18084L   23301.41116464  .00007850  00000+0  46906-3 0  9997
2 43682  98.8820 346.6095 0049807  64.0625 296.5721 15.10390403274319
SAOCOM 1B               
1 46265U 20059A   23301.53437345  .00000793  00000+0  10616-3 0  9997
2 46265  97.8878 125.1959 0001408  89.6265 270.5109 14.82155598170890
CSS (TIANHE)            
1 48274U 21035A   23301.54916553  .00016923  00000+0  20393-3 0  9993
2 48274  41.4710  63.9400 0004540 344.9705  15.0998 15.60393605142682
COSMOS 2550             
1 48865U 21056A   23300.97347514 -.00000072  00000+0  36466-5 0  9992
2 48865  67.1392 133.8369 0008388 270.3203  89.6990 15.33830155131008
2022-019U               
1 51842U 22019U   23301.51606958  .00042761  00000+0  96846-3 0  9998
2 51842  97.5245  31.5804 0046358 224.5612 135.1904 15.41836106 92956
CZ-2C R/B               
1 52794U 22058K   23301.38278817  .00010505  00000+0  47934-3 0  9997
2 52794  50.1700 298.6325 0090054 275.5830  83.4860 15.17541260 77707
CZ-2C R/B               
1 53131U 22082D   23301.54834685  .00049812  00000+0  62022-3 0  9997
2 53131  97.3388 319.8869 0030554 105.4561 255.0073 15.59209897 72484
XRISM                   
1 57800U 23137A   23301.41283127  .00004694  00000+0  37780-3 0  9993
2 57800  31.0046  50.9280 0010213  64.9737 295.1958 14.98370610  7637
